{"type": "FeatureCollection", "features": [ {"type": "Feature", "properties": {"norad_id": 41556, "name": "ZIYUAN 3-02 (ZY 3-02)", "group": "resource", "lat": -24.645936900981678, "lon": -108.26707742121143, "alt_km": 499.8964603451195, "timestamp": "2025-12-27T05:29:38.851514+00:00", "meta": {"OBJECT_NAME": "ZIYUAN 3-02 (ZY 3-02)", "OBJECT_ID": "2016-033A", "EPOCH": "2025-12-26T23:51:39.103776", "MEAN_MOTION": 15.21259899, "ECCENTRICITY": 0.00115889, "INCLINATION": 97.4022, "RA_OF_ASC_NODE": 74.9218, "ARG_OF_PERICENTER": 193.1405, "MEAN_ANOMALY": 166.9531, "EPHEMERIS_TYPE": 0, "CLASSIFICATION_TYPE": "U", "NORAD_CAT_ID": 41556, "ELEMENT_SET_NO": 999, "REV_AT_EPOCH": 53180, "BSTAR": 0.00036551845, "MEAN_MOTION_DOT": 8.114e-05, "MEAN_MOTION_DDOT": 0}, "tle": {"line1": "1 41556U 16033A   25360.99420259  .00008114  00000+0  36552-3 0  9997", "line2": "2 41556  97.4022  74.9218 0011588 193.1405 166.9531 15.21259899531803"}}, "geometry": {"type": "Point", "coordinates": [-108.26707742121143, -24.645936900981678]}}, {"type": "Feature", "properties": {"norad_id": 41599, "name": "CARTOSAT-2C", "group": "resource", "lat": 41.57313057352673, "lon": 51.63970136362232, "alt_km": 498.2327206354512, "timestamp": "2025-12-27T05:29:38.851524+00:00", "meta": {"OBJECT_NAME": "CARTOSAT-2C", "OBJECT_ID": "2016-040A", "EPOCH": "2025-12-26T22:59:14.159328", "MEAN_MOTION": 15.19246227, "ECCENTRICITY": 0.00105603, "INCLINATION": 97.4747, "RA_OF_ASC_NODE": 58.0592, "ARG_OF_PERICENTER": 18.066, "MEAN_ANOMALY": 342.0948, "EPHEMERIS_TYPE": 0, "CLASSIFICATION_TYPE": "U", "NORAD_CAT_ID": 41599, "ELEMENT_SET_NO": 999, "REV_AT_EPOCH": 52756, "BSTAR": 0.00021444163, "MEAN_MOTION_DOT": 4.456e-05, "MEAN_MOTION_DDOT": 0}, "tle": {"line1": "1 41599U 16040A   25360.95780277  .00004456  00000+0  21444-3 0  9996", "line2": "2 41599  97.4747  58.0592 0010560  18.0660 342.0948 15.19246227527564"}}, "geometry": {"type": "Point", "coordinates": [51.63970136362232, 41.57313057352673]}}, {"type": "Feature", "properties": {"norad_id": 41601, "name": "SKYSAT-C1", "group": "resource", "lat": 77.79947302766335, "lon": 2.9046772789692725, "alt_km": 460.41915227547634, "timestamp": "2025-12-27T05:29:38.851534+00:00", "meta": {"OBJECT_NAME": "SKYSAT-C1", "OBJECT_ID": "2016-040C", "EPOCH": "2025-12-26T15:02:45.250368", "MEAN_MOTION": 15.32840769, "ECCENTRICITY": 7.875e-05, "INCLINATION": 96.9809, "RA_OF_ASC_NODE": 36.8576, "ARG_OF_PERICENTER": 308.5435, "MEAN_ANOMALY": 51.5738, "EPHEMERIS_TYPE": 0, "CLASSIFICATION_TYPE": "U", "NORAD_CAT_ID": 41601, "ELEMENT_SET_NO": 999, "REV_AT_EPOCH": 53140, "BSTAR": 0.00029479645, "MEAN_MOTION_DOT": 9.28e-05, "MEAN_MOTION_DDOT": 0}, "tle": {"line1": "1 41601U 16040C   25360.62691262  .00009280  00000+0  29480-3 0  9997", "line2": "2 41601  96.9809  36.8576 0000787 308.5435  51.5738 15.32840769531407"}}, "geometry": {"type": "Point", "coordinates": [2.9046772789692725, 77.79947302766335]}}, {"type": "Feature", "properties": {"norad_id": 41603, "name": "LAPAN-A3", "group": "resource", "lat": 13.676038767307343, "lon": -179.99186039802882, "alt_km": 473.7372909953847, "timestamp": "2025-12-27T05:29:38.851545+00:00", "meta": {"OBJECT_NAME": "LAPAN-A3", "OBJECT_ID": "2016-040E", "EPOCH": "2025-12-27T00:03:59.804928", "MEAN_MOTION": 15.31671657, "ECCENTRICITY": 0.00086373, "INCLINATION": 97.1436, "RA_OF_ASC_NODE": 358.0413, "ARG_OF_PERICENTER": 274.2018, "MEAN_ANOMALY": 85.8237, "EPHEMERIS_TYPE": 0, "CLASSIFICATION_TYPE": "U", "NORAD_CAT_ID": 41603, "ELEMENT_SET_NO": 999, "REV_AT_EPOCH": 52844, "BSTAR": 0.00016858812, "MEAN_MOTION_DOT": 5.086e-05, "MEAN_MOTION_DDOT": 0}, "tle": {"line1": "1 41603U 16040E   25361.00277552  .00005086  00000+0  16859-3 0  9990", "line2": "2 41603  97.1436 358.0413 0008637 274.2018  85.8237 15.31671657528446"}}, "geometry": {"type": "Point", "coordinates": [-179.99186039802882, 13.676038767307343]}}, {"type": "Feature", "properties": {"norad_id": 41604, "name": "BIROS", "group": "resource", "lat": -74.21524091085463, "lon": 59.328389116864855, "alt_km": 296.0039786763109, "timestamp": "2025-12-27T05:29:38.851555+00:00", "meta": {"OBJECT_NAME": "BIROS", "OBJECT_ID": "2016-040F", "EPOCH": "2025-12-26T14:45:38.450304", "MEAN_MOTION": 15.95497863, "ECCENTRICITY": 0.000398, "INCLINATION": 97.0651, "RA_OF_ASC_NODE": 32.6597, "ARG_OF_PERICENTER": 120.7736, "MEAN_ANOMALY": 239.3933, "EPHEMERIS_TYPE": 0, "CLASSIFICATION_TYPE": "U", "NORAD_CAT_ID": 41604, "ELEMENT_SET_NO": 999, "REV_AT_EPOCH": 53093, "BSTAR": 0.00064877, "MEAN_MOTION_DOT": 0.00256097, "MEAN_MOTION_DDOT": 2.75e-05}, "tle": {"line1": "1 41604U 16040F   25360.61502836  .00256097  27500-4  64877-3 0  9995", "line2": "2 41604  97.0651  32.6597 0003980 120.7736 239.3933 15.95497863530932"}}, "geometry": {"type": "Point", "coordinates": [59.328389116864855, -74.21524091085463]}}, {"type": "Feature", "properties": {"norad_id": 41727, "name": "GAOFEN-3", "group": "resource", "lat": -30.96166023064889, "lon": 11.682336075507394, "alt_km": 757.1169279334263, "timestamp": "2025-12-27T05:29:38.851565+00:00", "meta": {"OBJECT_NAME": "GAOFEN-3", "OBJECT_ID": "2016-049A", "EPOCH": "2025-12-26T22:58:43.755168", "MEAN_MOTION": 14.42216677, "ECCENTRICITY": 0.00010342, "INCLINATION": 98.4041, "RA_OF_ASC_NODE": 6.3265, "ARG_OF_PERICENTER": 55.2963, "MEAN_ANOMALY": 304.8324, "EPHEMERIS_TYPE": 0, "CLASSIFICATION_TYPE": "U", "NORAD_CAT_ID": 41727, "ELEMENT_SET_NO": 999, "REV_AT_EPOCH": 49382, "BSTAR": -2.122806e-06, "MEAN_MOTION_DOT": -5e-07, "MEAN_MOTION_DDOT": 0}, "tle": {"line1": "1 41727U 16049A   25360.95745087 -.00000050  00000+0 -21228-5 0  9998", "line2": "2 41727  98.4041   6.3265 0001034  55.2963 304.8324 14.42216677493829"}}, "geometry": {"type": "Point", "coordinates": [11.682336075507394, -30.96166023064889]}}, {"type": "Feature", "properties": {"norad_id": 41771, "name": "SKYSAT-C4", "group": "resource", "lat": 17.60835322448023, "lon": -152.07161746718575, "alt_km": 437.49879819237503, "timestamp": "2025-12-27T05:29:38.851576+00:00", "meta": {"OBJECT_NAME": "SKYSAT-C4", "OBJECT_ID": "2016-058B", "EPOCH": "2025-12-26T13:13:33.091680", "MEAN_MOTION": 15.4264534, "ECCENTRICITY": 0.0002638, "INCLINATION": 96.9364, "RA_OF_ASC_NODE": 25.0687, "ARG_OF_PERICENTER": 121.6623, "MEAN_ANOMALY": 238.4883, "EPHEMERIS_TYPE": 0, "CLASSIFICATION_TYPE": "U", "NORAD_CAT_ID": 41771, "ELEMENT_SET_NO": 999, "REV_AT_EPOCH": 51880, "BSTAR": 0.00036601, "MEAN_MOTION_DOT": 0.00015874, "MEAN_MOTION_DDOT": 0}, "tle": {"line1": "1 41771U 16058B   25360.55107745  .00015874  00000+0  36601-3 0  9993", "line2": "2 41771  96.9364  25.0687 0002638 121.6623 238.4883 15.42645340518809"}}, "geometry": {"type": "Point", "coordinates": [-152.07161746718575, 17.60835322448023]}}, {"type": "Feature", "properties": {"norad_id": 41772, "name": "SKYSAT-C5", "group": "resource", "lat": 1.1642437359068265, "lon": 44.22954795043047, "alt_km": 468.5689340582403, "timestamp": "2025-12-27T05:29:38.851586+00:00", "meta": {"OBJECT_NAME": "SKYSAT-C5", "OBJECT_ID": "2016-058C", "EPOCH": "2025-12-26T16:57:56.362176", "MEAN_MOTION": 15.34129911, "ECCENTRICITY": 0.0004076, "INCLINATION": 97.0741, "RA_OF_ASC_NODE": 43.8739, "ARG_OF_PERICENTER": 223.4884, "MEAN_ANOMALY": 136.6039, "EPHEMERIS_TYPE": 0, "CLASSIFICATION_TYPE": "U", "NORAD_CAT_ID": 41772, "ELEMENT_SET_NO": 999, "REV_AT_EPOCH": 51730, "BSTAR": 0.00028723181, "MEAN_MOTION_DOT": 9.416e-05, "MEAN_MOTION_DDOT": 0}, "tle": {"line1": "1 41772U 16058C   25360.70690234  .00009416  00000+0  28723-3 0  9992", "line2": "2 41772  97.0741  43.8739 0004076 223.4884 136.6039 15.34129911517303"}}, "geometry": {"type": "Point", "coordinates": [44.22954795043047, 1.1642437359068265]}}, {"type": "Feature", "properties": {"norad_id": 41773, "name": "SKYSAT-C2", "group": "resource", "lat": -5.4947077093451995, "lon": -155.53793151174307, "alt_km": 458.7094419746527, "timestamp": "2025-12-27T05:29:38.851599+00:00", "meta": {"OBJECT_NAME": "SKYSAT-C2", "OBJECT_ID": "2016-058D", "EPOCH": "2025-12-26T14:37:58.926720", "MEAN_MOTION": 15.37583734, "ECCENTRICITY": 0.0002572, "INCLINATION": 97.0353, "RA_OF_ASC_NODE": 24.5495, "ARG_OF_PERICENTER": 351.2382, "MEAN_ANOMALY": 8.8818, "EPHEMERIS_TYPE": 0, "CLASSIFICATION_TYPE": "U", "NORAD_CAT_ID": 41773, "ELEMENT_SET_NO": 999, "REV_AT_EPOCH": 51849, "BSTAR": 0.00034081, "MEAN_MOTION_DOT": 0.000125, "MEAN_MOTION_DDOT": 0}, "tle": {"line1": "1 41773U 16058D   25360.60970980  .00012500  00000+0  34081-3 0  9993", "line2": "2 41773  97.0353  24.5495 0002572 351.2382   8.8818 15.37583734518496"}}, "geometry": {"type": "Point", "coordinates": [-155.53793151174307, -5.4947077093451995]}}, {"type": "Feature", "properties": {"norad_id": 41774, "name": "SKYSAT-C3", "group": "resource", "lat": 29.55168330305549, "lon": 30.349278996689907, "alt_km": 429.8864076405016, "timestamp": "2025-12-27T05:29:38.851609+00:00", "meta": {"OBJECT_NAME": "SKYSAT-C3", "OBJECT_ID": "2016-058E", "EPOCH": "2025-12-26T15:22:29.771040", "MEAN_MOTION": 15.44897562, "ECCENTRICITY": 0.00021582, "INCLINATION": 96.9285, "RA_OF_ASC_NODE": 33.7414, "ARG_OF_PERICENTER": 106.7357, "MEAN_ANOMALY": 253.413, "EPHEMERIS_TYPE": 0, "CLASSIFICATION_TYPE": "U", "NORAD_CAT_ID": 41774, "ELEMENT_SET_NO": 999, "REV_AT_EPOCH": 51940, "BSTAR": 0.00041358069, "MEAN_MOTION_DOT": 0.00019372, "MEAN_MOTION_DDOT": 0}, "tle": {"line1": "1 41774U 16058E   25360.64062235  .00019372  00000+0  41358-3 0  9992", "line2": "2 41774  96.9285  33.7414 0002158 106.7357 253.4130 15.44897562519409"}}, "geometry": {"type": "Point", "coordinates": [30.349278996689907, 29.55168330305549]}}]}